COSMOS 2361 [-]         
1 25590U 98076A   16096.97291081  .00000047  00000-0  34218-4 0  9993
2 25590  82.9319  79.1041 0032183  22.1538  30.2545 13.72911246865683
COSMOS 2378 [-]         
1 26818U 01023A   16097.44483684  .00000031  00000-0  17286-4 0  9997
2 26818  82.9252 100.9673 0032715 337.1355  22.8356 13.73898174743568
COSMOS 2389 [-]         
1 27436U 02026A   16097.88551461  .00000023  00000-0  82638-5 0  9990
2 27436  82.9526  43.9742 0045654 206.6186 206.6090 13.74897435695518
COSMOS 2398 [-]         
1 27818U 03023A   16097.90231435  .00000008  00000-0 -76349-5 0  9997
2 27818  82.9524 358.2483 0030463 212.3290 147.5985 13.72125642643102
COSMOS 2407 [+]         
1 28380U 04028A   16097.41889772  .00000018  00000-0  33460-5 0  9994
2 28380  82.9598 311.6266 0038152 223.4421 136.3732 13.76022737587920
COSMOS 2414 [+]         
1 28521U 05002A   16097.87617468  .00000021  00000-0  37980-5 0  9990
2 28521  82.9523 338.6287 0040884 140.8603 219.5528 13.87566469567771
COSMOS 2429 [-]         
1 32052U 07038A   16097.86487941  .00000031  00000-0  16658-4 0  9994
2 32052  82.9793  69.1889 0038136 188.6525 171.3978 13.74869785430088
COSMOS 2454 [-]         
1 35635U 09039A   16097.84003849  .00000029  00000-0  10915-4 0  9993
2 35635  82.9578 329.2233 0020484 107.8416 252.4988 13.89592209340454
COSMOS 2463 [+]         
1 36519U 10017A   16097.57658200  .00000080  00000-0  72059-4 0  9994
2 36519  82.9579 104.8066 0037074  22.0611 338.2128 13.71397053297626
